{
  "type": "FeatureCollection",
  "map": {
    "image": "ar/world-map.png",
    "mindTarget": "ar/world-map.mind",
    "projection": "equirectangular",
    "lonMin": -180,
    "lonMax": 180,
    "latMin": -90,
    "latMax": 90,
    "aspect": 2,
    "printInstructions": "Print public/ar/world-map.png at A3/A4 (exact crop). Compile matching .mind if missing."
  },
  "features": [
    {
      "type": "Feature",
      "properties": {
        "id": "eiffel",
        "name": "Eiffel Tower",
        "city": "Paris, France",
        "description": "Iron lattice tower on the Champ de Mars. Height ~330 m.",
        "modelUrl": "models/eiffel.glb",
        "maxHeight": 0.12,
        "sketchfabUrl": "https://sketchfab.com/3d-models/eiffel-tower-model-3d-with-best-quality-c3391c293e70471e9a112f7855adcf2f",
        "author": "shatlykxfree",
        "license": "CC Attribution",
        "licenseUrl": "http://creativecommons.org/licenses/by/4.0/"
      },
      "geometry": {
        "type": "Point",
        "coordinates": [2.2945, 48.8584]
      }
    },
    {
      "type": "Feature",
      "properties": {
        "id": "pisa",
        "name": "Leaning Tower of Pisa",
        "city": "Pisa, Italy",
        "description": "Freestanding bell tower of Pisa Cathedral, famous for its unintended tilt.",
        "modelUrl": "models/pisa.glb",
        "maxHeight": 0.1,
        "sketchfabUrl": "https://sketchfab.com/3d-models/the-leaning-tower-of-pisa-b627f6861e5d4cabb616a848e9552f55",
        "author": "Zhang Shangbin (store model — purchase required)",
        "license": "Sketchfab Standard (paid)",
        "licenseUrl": "https://sketchfab.com/licenses"
      },
      "geometry": {
        "type": "Point",
        "coordinates": [10.3966, 43.723]
      }
    },
    {
      "type": "Feature",
      "properties": {
        "id": "liberty",
        "name": "Statue of Liberty",
        "city": "New York, USA",
        "description": "Neoclassical sculpture on Liberty Island in New York Harbor.",
        "modelUrl": "models/liberty.glb",
        "maxHeight": 0.11,
        "sketchfabUrl": "https://sketchfab.com/3d-models/statue-of-liberty-84094e8d5e724b5c882cf576ca12e44e",
        "author": "Gravity Jack",
        "license": "CC Attribution",
        "licenseUrl": "http://creativecommons.org/licenses/by/4.0/"
      },
      "geometry": {
        "type": "Point",
        "coordinates": [-74.0445, 40.6892]
      }
    }
  ]
}
